[{"OBJECT_NAME":"STARLINK-31600","OBJECT_ID":"2024-057X","EPOCH":"2026-03-09T09:16:52.720320","MEAN_MOTION":15.27569261,"ECCENTRICITY":0.00021574,"INCLINATION":43.0013,"RA_OF_ASC_NODE":196.4876,"ARG_OF_PERICENTER":291.6953,"MEAN_ANOMALY":68.3669,"EPHEMERIS_TYPE":0,"CLASSIFICATION_TYPE":"U","NORAD_CAT_ID":59341,"ELEMENT_SET_NO":999,"REV_AT_EPOCH":10970,"BSTAR":-1.7263009e-5,"MEAN_MOTION_DOT":-7.37e-6,"MEAN_MOTION_DDOT":0},{"OBJECT_NAME":"COSMOS 917 DEB","OBJECT_ID":"1977-047L","EPOCH":"2026-03-09T17:58:52.309920","MEAN_MOTION":2.01986848,"ECCENTRICITY":0.74036961,"INCLINATION":60.3407,"RA_OF_ASC_NODE":243.8674,"ARG_OF_PERICENTER":51.615,"MEAN_ANOMALY":354.1549,"EPHEMERIS_TYPE":0,"CLASSIFICATION_TYPE":"U","NORAD_CAT_ID":27888,"ELEMENT_SET_NO":999,"REV_AT_EPOCH":21619,"BSTAR":0.00076528617,"MEAN_MOTION_DOT":4.17e-6,"MEAN_MOTION_DDOT":0}]
